<?xml version='1.0' encoding='UTF-8' standalone='yes' ?><TrainingCenterDatabase xsi:schemaLocation="http://www.garmin.com/xmlschemas/TrainingCenterDatabase/v2 http://www.garmin.com/xmlschemas/TrainingCenterDatabasev2.xsd" xmlns:ns5="http://www.garmin.com/xmlschemas/ActivityGoals/v1" xmlns:ns3="http://www.garmin.com/xmlschemas/ActivityExtension/v2" xmlns:ns2="http://www.garmin.com/xmlschemas/UserProfile/v2" xmlns="http://www.garmin.com/xmlschemas/TrainingCenterDatabase/v2" xmlns:xsi="http://www.w3.org/2001/XMLSchema-instance" xmlns:ns4="http://www.garmin.com/xmlschemas/ProfileExtension/v1"><Activities><Activity Sport="Other"><Id>2026-09-13T04:39:36Z</Id><Lap StartTime="2026-09-13T04:39:36Z"><TotalTimeSeconds>171</TotalTimeSeconds><DistanceMeters>0.0</DistanceMeters><Calories>4</Calories><MaximumSpeed>0.0</MaximumSpeed><AverageHeartRateBpm><Value>48</Value></AverageHeartRateBpm><MaximumHeartRateBpm><Value>58</Value></MaximumHeartRateBpm><Intensity>Active</Intensity><TriggerMethod>Manual</TriggerMethod><Track><Trackpoint><Time>2026-09-13T04:39:46Z</Time><DistanceMeters>0</DistanceMeters><HeartRateBpm><Value>48</Value></HeartRateBpm></Trackpoint><Trackpoint><Time>2026-09-13T04:39:51Z</Time><HeartRateBpm><Value>47</Value></HeartRateBpm></Trackpoint><Trackpoint><Time>2026-09-13T04:39:56Z</Time><HeartRateBpm><Value>47</Value></HeartRateBpm></Trackpoint><Trackpoint><Time>2026-09-13T04:40:01Z</Time><HeartRateBpm><Value>47</Value></HeartRateBpm></Trackpoint><Trackpoint><Time>2026-09-13T04:40:06Z</Time><HeartRateBpm><Value>46</Value></HeartRateBpm></Trackpoint><Trackpoint><Time>2026-09-13T04:40:11Z</Time><HeartRateBpm><Value>46</Value></HeartRateBpm></Trackpoint><Trackpoint><Time>2026-09-13T04:40:16Z</Time><HeartRateBpm><Value>45</Value></HeartRateBpm></Trackpoint><Trackpoint><Time>2026-09-13T04:40:21Z</Time><HeartRateBpm><Value>46</Value></HeartRateBpm></Trackpoint><Trackpoint><Time>2026-09-13T04:40:26Z</Time><HeartRateBpm><Value>47</Value></HeartRateBpm></Trackpoint><Trackpoint><Time>2026-09-13T04:40:31Z</Time><HeartRateBpm><Value>47</Value></HeartRateBpm></Trackpoint><Trackpoint><Time>2026-09-13T04:40:36Z</Time><HeartRateBpm><Value>47</Value></HeartRateBpm></Trackpoint><Trackpoint><Time>2026-09-13T04:40:41Z</Time><HeartRateBpm><Value>49</Value></HeartRateBpm></Trackpoint><Trackpoint><Time>2026-09-13T04:40:46Z</Time><HeartRateBpm><Value>46</Value></HeartRateBpm></Trackpoint><Trackpoint><Time>2026-09-13T04:40:51Z</Time><HeartRateBpm><Value>48</Value></HeartRateBpm></Trackpoint><Trackpoint><Time>2026-09-13T04:40:56Z</Time><HeartRateBpm><Value>49</Value></HeartRateBpm></Trackpoint><Trackpoint><Time>2026-09-13T04:41:01Z</Time><HeartRateBpm><Value>50</Value></HeartRateBpm></Trackpoint><Trackpoint><Time>2026-09-13T04:41:06Z</Time><HeartRateBpm><Value>51</Value></HeartRateBpm></Trackpoint><Trackpoint><Time>2026-09-13T04:41:11Z</Time><HeartRateBpm><Value>49</Value></HeartRateBpm></Trackpoint><Trackpoint><Time>2026-09-13T04:41:16Z</Time><HeartRateBpm><Value>50</Value></HeartRateBpm></Trackpoint><Trackpoint><Time>2026-09-13T04:41:21Z</Time><HeartRateBpm><Value>50</Value></HeartRateBpm></Trackpoint><Trackpoint><Time>2026-09-13T04:41:26Z</Time><HeartRateBpm><Value>51</Value></HeartRateBpm></Trackpoint><Trackpoint><Time>2026-09-13T04:41:31Z</Time><HeartRateBpm><Value>49</Value></HeartRateBpm></Trackpoint><Trackpoint><Time>2026-09-13T04:41:36Z</Time><HeartRateBpm><Value>49</Value></HeartRateBpm></Trackpoint><Trackpoint><Time>2026-09-13T04:41:41Z</Time><HeartRateBpm><Value>51</Value></HeartRateBpm></Trackpoint><Trackpoint><Time>2026-09-13T04:41:46Z</Time><HeartRateBpm><Value>49</Value></HeartRateBpm></Trackpoint><Trackpoint><Time>2026-09-13T04:41:51Z</Time><HeartRateBpm><Value>49</Value></HeartRateBpm></Trackpoint><Trackpoint><Time>2026-09-13T04:41:56Z</Time><HeartRateBpm><Value>49</Value></HeartRateBpm></Trackpoint><Trackpoint><Time>2026-09-13T04:42:01Z</Time><HeartRateBpm><Value>48</Value></HeartRateBpm></Trackpoint><Trackpoint><Time>2026-09-13T04:42:06Z</Time><HeartRateBpm><Value>49</Value></HeartRateBpm></Trackpoint><Trackpoint><Time>2026-09-13T04:42:11Z</Time><HeartRateBpm><Value>49</Value></HeartRateBpm></Trackpoint><Trackpoint><Time>2026-09-13T04:42:16Z</Time><HeartRateBpm><Value>52</Value></HeartRateBpm></Trackpoint><Trackpoint><Time>2026-09-13T04:42:21Z</Time><HeartRateBpm><Value>58</Value></HeartRateBpm></Trackpoint><Trackpoint><Time>2026-09-13T04:42:26Z</Time><HeartRateBpm><Value>58</Value></HeartRateBpm><DistanceMeters>0.0</DistanceMeters></Trackpoint><Trackpoint><Time>2026-09-13T04:42:33Z</Time><DistanceMeters>0.0</DistanceMeters></Trackpoint></Track></Lap></Activity></Activities></TrainingCenterDatabase>