<?xml version="1.0" encoding="UTF-8"?> <kml xmlns="http://www.opengis.net/kml/2.2"> <Document><name>WALKING</name><description>Health Sync</description><Style id="healthsynccolor"> <LineStyle> <color>FF00b223</color> <width>4</width> </LineStyle> <PolyStyle> <color>0000b223</color> </PolyStyle> </Style><Placemark><name>WALKING</name><description>Health Sync</description><styleUrl>#healthsynccolor</styleUrl><LineString><tessellate>1</tessellate><coordinates>-74.04504,4.730005
-74.04506,4.729993
-74.045074,4.729979
-74.04508,4.72996
-74.04508,4.729947
-74.04508,4.72993
-74.045074,4.72992
-74.04508,4.729904
-74.04508,4.729889
-74.04508,4.729881
-74.04509,4.729869
-74.04508,4.729859
-74.04509,4.729852
-74.04509,4.729846
-74.04509,4.729841
-74.04509,4.729839
-74.0451,4.72984
-74.0451,4.72984
-74.0451,4.72984
-74.0451,4.72984
-74.0451,4.72984
-74.0451,4.72984
-74.0451,4.72984
-74.0451,4.72984
-74.0451,4.72984
-74.0451,4.72984
-74.0451,4.72984
-74.0451,4.72984
-74.0451,4.72984
-74.0451,4.72984
-74.0451,4.72984
-74.0451,4.72984
-74.0451,4.72984
-74.0451,4.72984
-74.0451,4.72984
-74.0451,4.72984
-74.0451,4.72984
-74.0451,4.72984
-74.0451,4.72984
-74.0451,4.72984
-74.0451,4.72984
-74.0451,4.72984
-74.0451,4.72984
-74.0451,4.72984
-74.0451,4.72984
-74.0451,4.72984
-74.0451,4.72984
-74.0451,4.72984
-74.0451,4.72984
-74.0451,4.72983
-74.045105,4.729818
-74.045105,4.729808
-74.045105,4.729795
-74.045105,4.729782
-74.04511,4.72977
-74.04512,4.729758
-74.04513,4.729743
-74.045135,4.729732
-74.045135,4.729715
-74.045135,4.729701
-74.04514,4.729684
-74.04514,4.729664
-74.04515,4.729641
-74.04515,4.72963
-74.04515,4.72962
-74.04516,4.729609
-74.045166,4.729603
-74.04517,4.729593
-74.04518,4.729583
-74.04518,4.729573
-74.04519,4.729562
-74.04519,4.72955
-74.0452,4.729534
-74.0452,4.729518
-74.0452,4.729502
-74.045204,4.729488
-74.045204,4.729474
-74.045204,4.72946
-74.045204,4.729454
-74.045204,4.729445
-74.045204,4.729438
-74.045204,4.729434
-74.04521,4.729419
-74.04521,4.729413
-74.04521,4.729403
-74.04522,4.72939
-74.04522,4.729378
-74.04523,4.729368
-74.04523,4.729357
-74.04523,4.729345
-74.045235,4.729332
-74.04524,4.729318
-74.04524,4.729304
-74.04524,4.729295
-74.04525,4.729284
-74.04525,4.729276
-74.04525,4.729266
-74.04525,4.729251
-74.04526,4.72924
-74.04526,4.729233
-74.04526,4.729225
-74.04526,4.729211
-74.04526,4.729201
-74.04526,4.729191
-74.045265,4.729177
-74.04526,4.729168
-74.04526,4.729158
-74.045265,4.729143
-74.045265,4.729126
-74.045265,4.729119
-74.04527,4.729106
-74.04527,4.729092
-74.04527,4.729077
-74.04528,4.729063
-74.04528,4.72905
-74.04529,4.729034
-74.04529,4.72902
-74.045296,4.729004
-74.045296,4.72899
-74.0453,4.728977
-74.04531,4.728963
-74.04531,4.728953
-74.04531,4.728939
-74.04532,4.728925
-74.04532,4.728913
-74.04531,4.728908
-74.04531,4.728902
-74.0453,4.728894
-74.0453,4.728883
-74.04531,4.728872
-74.04531,4.728864
-74.04531,4.728852
-74.04531,4.728844
-74.04531,4.728833
-74.04531,4.728822
-74.04532,4.728813
-74.04532,4.728804
-74.04533,4.728789
-74.04533,4.728774
-74.04533,4.728759
-74.045334,4.728748
-74.045334,4.728738
-74.045334,4.728729
-74.045334,4.728718
-74.04534,4.728708
-74.04534,4.728698
-74.04534,4.728687
-74.04534,4.728676
-74.04534,4.728663
-74.04534,4.72865
-74.04534,4.728637
-74.04534,4.728623
-74.04534,4.728611
-74.04534,4.728599
-74.04534,4.728588
-74.04534,4.728577
-74.04534,4.728564
-74.04534,4.72855
-74.04535,4.728542
-74.04536,4.728531
-74.04536,4.728518
-74.04536,4.7285
-74.04536,4.728485
-74.045364,4.728471
-74.045364,4.72846
-74.045364,4.728447
-74.04537,4.728438
-74.04537,4.728427
-74.04538,4.728414
-74.04538,4.728405
-74.04538,4.728394
-74.04537,4.728381
-74.04537,4.72837
-74.04537,4.728357
-74.04538,4.728345
-74.04538,4.728334
-74.04538,4.728323
-74.04538,4.72831
-74.04539,4.728297
-74.04539,4.728284
-74.04539,4.728271
-74.045395,4.72826
-74.045395,4.728249
-74.045395,4.728236
-74.045395,4.728224
-74.0454,4.728213
-74.0454,4.7282
-74.04541,4.728187
-74.04541,4.728177
-74.04541,4.728165
-74.04542,4.728154
-74.04542,4.728144
-74.04542,4.728136
-74.04542,4.728125
-74.045425,4.728114
-74.045425,4.728104
-74.04543,4.728094
-74.04543,4.728083
-74.04543,4.728071
-74.04543,4.728059
-74.04544,4.728051
-74.04544,4.728036
-74.04545,4.728028
-74.04544,4.728011
-74.04544,4.728004
-74.04545,4.727994
-74.04545,4.72798
-74.04545,4.727969
-74.045456,4.727955
-74.04545,4.727939
-74.045456,4.727923
-74.045456,4.72791
-74.04546,4.727898
-74.04546,4.727886
-74.04546,4.727874
-74.04546,4.72786
-74.04546,4.727844
-74.04546,4.727828
-74.04546,4.727813
-74.04546,4.727799
-74.04546,4.727787
-74.04546,4.727774
-74.04546,4.727764
-74.04546,4.727754
-74.04547,4.727738
-74.04547,4.727728
-74.04547,4.727718
-74.04547,4.727709
-74.04547,4.727695
-74.04547,4.727687
-74.04547,4.727674
-74.04548,4.727665
-74.04548,4.727656
-74.04548,4.727645
-74.04548,4.727633
-74.04548,4.727622
-74.04549,4.72761
-74.04548,4.727597
-74.04548,4.727584
-74.04549,4.727569
-74.04549,4.727556
-74.045494,4.72754
-74.045494,4.727527
-74.0455,4.727515
-74.0455,4.727503
-74.0455,4.727492
-74.0455,4.727479
-74.04551,4.727467
-74.04551,4.727456
-74.04552,4.727444
-74.04552,4.727433
-74.04552,4.727421
-74.04552,4.72741
-74.04552,4.727399
-74.04552,4.727387
-74.045525,4.727376
-74.04552,4.727365
-74.045525,4.727357
-74.04553,4.727349
-74.04553,4.727338
-74.04554,4.727328
-74.04554,4.727316
-74.04554,4.727301
-74.04554,4.727294
-74.04554,4.727282
-74.04554,4.727269
-74.04555,4.727255
-74.04555,4.72724
-74.045555,4.727223
-74.045555,4.727205
-74.04556,4.727188
-74.04556,4.727172
-74.04557,4.727164
-74.04557,4.727151
-74.04557,4.727138
-74.04557,4.727127
-74.04558,4.727116
-74.045586,4.727103
-74.04558,4.7271
-74.045586,4.727093
-74.045586,4.727083
-74.045586,4.72707
-74.045586,4.727064
-74.045586,4.727053
-74.045586,4.72704
-74.045586,4.727027
-74.045586,4.727012
-74.045586,4.727
-74.045586,4.726988
-74.04559,4.726974
-74.04559,4.72696
-74.04559,4.726949
-74.0456,4.726936
-74.0456,4.72692
-74.0456,4.726908
-74.0456,4.726896
-74.0456,4.726887
-74.04561,4.726878
-74.04561,4.726865
-74.045616,4.72685
-74.045616,4.726837
-74.045616,4.726831
-74.04561,4.726815
-74.04561,4.726794
-74.045616,4.726778
-74.04561,4.726765
-74.045616,4.726752
-74.045616,4.72674
-74.045616,4.72673
-74.045616,4.726719
-74.045616,4.726709
-74.04562,4.726697
-74.04563,4.726688
-74.04564,4.726677
-74.04565,4.726668
-74.04565,4.72666
-74.04565,4.726647
-74.045654,4.726636
-74.045654,4.726625
-74.045654,4.726613
-74.04566,4.726604
-74.04567,4.726593
-74.04567,4.726582
-74.04567,4.726572
-74.04568,4.726561
-74.04568,4.72655
-74.04568,4.726538
-74.04568,4.726525
-74.04568,4.726512
-74.04568,4.726502
-74.04568,4.726491
-74.04568,4.72648
-74.04568,4.726466
-74.04568,4.726452
-74.045685,4.726439
-74.045685,4.726429
-74.045685,4.726417
-74.045685,4.726406
-74.045685,4.726395
-74.04569,4.726382
-74.04569,4.726369
-74.04569,4.726355
-74.04569,4.726342
-74.04569,4.726327
-74.0457,4.726312
-74.0457,4.726298
-74.0457,4.726285
-74.0457,4.726271
-74.0457,4.726258
-74.04571,4.726248
-74.04571,4.726238
-74.04571,4.726229
-74.04571,4.726218
-74.045715,4.726206
-74.045715,4.726196
-74.045715,4.726186
-74.045715,4.726176
-74.045715,4.726167
-74.04572,4.726154
-74.04572,4.726145
-74.04572,4.726136
-74.04572,4.726126
-74.04572,4.726113
-74.04572,4.726099
-74.04572,4.726088
-74.04572,4.726073
-74.04572,4.72606
-74.04573,4.726046
-74.04573,4.726034
-74.04574,4.726021
-74.04574,4.726008
-74.04574,4.725998
-74.04574,4.725991
-74.04574,4.725985
-74.045746,4.725981
-74.045746,4.725978
-74.045746,4.725978
-74.045746,4.725978
-74.045746,4.725978
-74.045746,4.725978
-74.045746,4.725978
-74.045746,4.725978
-74.045746,4.725978
-74.045746,4.725978
-74.045746,4.725978
-74.045746,4.725978
-74.045746,4.725978
-74.045746,4.725978
-74.045746,4.725944
-74.04575,4.725925
-74.04575,4.725913
-74.04576,4.725905
-74.04577,4.7259
-74.04578,4.725891
-74.04577,4.725877
-74.04577,4.725868
-74.04577,4.725855
-74.04577,4.725842
-74.04576,4.725834
-74.04577,4.725819
-74.04578,4.725806
-74.04578,4.725793
-74.04578,4.72578
-74.04577,4.725771
-74.04578,4.725756
-74.04578,4.725755
-74.045784,4.725741
-74.045784,4.725732
-74.04579,4.725721
-74.04579,4.725709
-74.04579,4.725694
-74.04579,4.72568
-74.04579,4.725669
-74.04579,4.725657
-74.04579,4.725648
-74.0458,4.725633
-74.0458,4.72562
-74.0458,4.725608
-74.04581,4.725597
-74.04581,4.725583
-74.045815,4.725569
-74.045815,4.725555
-74.04582,4.725544
-74.04583,4.725525
-74.04583,4.725523
-74.04583,4.725505
-74.04583,4.725486
-74.04583,4.725474
-74.04583,4.725462
-74.04583,4.725448
-74.04584,4.725434
-74.04584,4.72542
-74.04585,4.725406
-74.04585,4.725396
-74.04585,4.725384
-74.04586,4.725364
-74.04586,4.725347
-74.04586,4.725334
-74.04586,4.725322
-74.04587,4.725309
-74.04587,4.725295
-74.04587,4.725283
-74.04587,4.725272
-74.04587,4.725257
-74.04587,4.725246
-74.04587,4.72523
-74.045876,4.725215
-74.045876,4.725204
-74.045876,4.725195
-74.04587,4.725184
-74.045876,4.725172
-74.045876,4.725157
-74.045876,4.72514
-74.045876,4.725133
-74.04588,4.72512
-74.04588,4.725111
-74.04589,4.7251
-74.04589,4.725091
-74.04589,4.725079
-74.04589,4.725069
-74.04589,4.725066
-74.04589,4.725059
-74.04589,4.725052
-74.04589,4.725041
-74.04589,4.725028
-74.0459,4.725016
-74.0459,4.725009
-74.0459,4.725002
-74.045906,4.724989
-74.045906,4.724977
-74.045906,4.724965
-74.045906,4.724951
-74.04591,4.724937
-74.04591,4.724926
-74.04591,4.724912
-74.04591,4.724893
-74.04592,4.724877
-74.04592,4.724861
-74.04593,4.724845
-74.045944,4.724831
-74.045944,4.724819
-74.045944,4.724807
-74.045944,4.724799
-74.045944,4.724778
-74.045944,4.724769
-74.045944,4.72476
-74.045944,4.724755
-74.045944,4.724742
-74.045944,4.724727
-74.045944,4.724717
-74.045944,4.724707
-74.045944,4.724698
-74.045944,4.724682
-74.045944,4.724676
-74.045944,4.724662
-74.04595,4.724654
-74.045944,4.72464
-74.04595,4.724632
-74.04595,4.724622
-74.04596,4.724612
-74.04595,4.724595
-74.04595,4.724578
-74.04595,4.724561
-74.04595,4.724548
-74.04595,4.724534
-74.04595,4.724518
-74.04595,4.724504
-74.04595,4.72449
-74.04596,4.724479
-74.04596,4.724465
-74.04596,4.724451
-74.04596,4.724439
-74.04596,4.724426
-74.04596,4.724414
-74.04597,4.7244
-74.045975,4.724389
-74.045975,4.724374
-74.045975,4.724361
-74.045975,4.72435
-74.045975,4.72434
-74.04598,4.724324
-74.04598,4.724311
-74.04598,4.724306
-74.04598,4.724302
-74.04598,4.724296
-74.04598,4.72429
-74.04598,4.724284
-74.04598,4.724278
-74.04598,4.724271
-74.04598,4.724263
-74.04598,4.724251
-74.04598,4.724243
-74.045975,4.724238
-74.045975,4.724231
-74.045975,4.724206
-74.04598,4.724187
-74.04598,4.724165
-74.04599,4.724146
-74.04599,4.724127
-74.04599,4.724112
-74.046,4.724091
-74.046,4.724074
-74.046005,4.724058
-74.046005,4.724044
-74.04601,4.72403
-74.04601,4.724019
-74.04602,4.724007
-74.04602,4.723995
-74.04603,4.723981
-74.04603,4.723967
-74.04603,4.723956
-74.04602,4.723942
-74.04603,4.723931
-74.046036,4.72392
-74.046036,4.72391
-74.046036,4.7239
-74.046036,4.72389
-74.046036,4.723878
-74.046036,4.723868
-74.046036,4.723859
-74.046036,4.723846
-74.046036,4.723835
-74.046036,4.723822
-74.046036,4.72381
-74.04605,4.723801
-74.04605,4.723787
-74.04604,4.72377
-74.04604,4.723756
-74.04604,4.723741
-74.04604,4.723728
-74.04604,4.723716
-74.04605,4.723704
-74.04605,4.723692
-74.04606,4.723683
-74.04605,4.723673
-74.04606,4.723656
-74.04606,4.72364
-74.04607,4.723627
-74.04607,4.723615
-74.04607,4.723603
-74.04607,4.723592
-74.04606,4.72358
-74.04606,4.723568
-74.04607,4.723552
-74.04607,4.723541
-74.04607,4.723527
-74.046074,4.723515
-74.046074,4.723505
-74.046074,4.723491
-74.046074,4.723479
-74.046074,4.723467
-74.046074,4.723455
-74.04607,4.723443
-74.046074,4.723429
-74.046074,4.723419
-74.046074,4.723403
-74.04607,4.723398
-74.04607,4.7234
-74.04607,4.723398
-74.04607,4.723398
-74.04607,4.723398
-74.04607,4.723398
-74.04607,4.723398
-74.04607,4.723398
-74.04607,4.723398
-74.04607,4.723398
-74.04607,4.723398
-74.04607,4.723398
-74.04607,4.723389
-74.04607,4.723374
-74.046074,4.723361
-74.046074,4.723347
-74.04608,4.723324
-74.04608,4.723312
-74.04609,4.7233
-74.0461,4.723286
-74.046104,4.723276
-74.04611,4.723263
-74.04611,4.723259
-74.04612,4.723257
-74.04612,4.723253
-74.04613,4.723239
-74.04613,4.723231
-74.04613,4.723221
-74.046135,4.723205
-74.046135,4.723192
-74.04614,4.723178
-74.04614,4.723165
-74.046135,4.723149
-74.046135,4.723144
-74.04614,4.723127
-74.04615,4.723114
-74.04615,4.723102
-74.04615,4.723097
-74.04615,4.723082
-74.04615,4.723068
-74.04615,4.723055
-74.04615,4.723045
-74.04615,4.723032
-74.04616,4.72302
-74.04616,4.723009
-74.04616,4.72299
-74.046165,4.722974
-74.046165,4.722955
-74.046165,4.722944
-74.046165,4.722932
-74.04617,4.722914
-74.04618,4.722905
-74.04618,4.7229
-74.04619,4.722889
-74.04619,4.722878
-74.046196,4.722865
-74.0462,4.722855
-74.0462,4.722844
-74.0462,4.722834
-74.04621,4.722819
-74.04621,4.722815
-74.04621,4.722806
-74.04622,4.722797
-74.04622,4.722784
-74.04623,4.722772
-74.04623,4.72276
-74.04623,4.722748
-74.04623,4.722736
-74.04623,4.722723
-74.04623,4.722705
-74.04623,4.722696
-74.04623,4.722685
-74.04623,4.722671
-74.04623,4.722654
-74.04623,4.722637
-74.046234,4.72262
-74.046234,4.722608
-74.046234,4.722595
-74.046234,4.722583
-74.046234,4.722574
-74.04624,4.722563
-74.04624,4.722548
-74.04624,4.722541
-74.04624,4.722533
-74.046234,4.722521
-74.046234,4.72251
-74.046234,4.7225
-74.046234,4.722488
-74.046234,4.722476
-74.04624,4.722463
-74.04624,4.722457
-74.04625,4.72245
-74.04625,4.72244
-74.04625,4.722432
-74.04625,4.722429
-74.04623,4.722424
-74.0462,4.722419
-74.04619,4.722414
-74.046165,4.722409
-74.04615,4.722404
-74.04613,4.722399
-74.04613,4.722399
-74.04613,4.722399
-74.04613,4.722399
-74.04613,4.722399
-74.04613,4.722399
-74.04613,4.722399
-74.04613,4.722399
-74.04613,4.722399
-74.04613,4.722399
-74.04613,4.722399
-74.04613,4.722399
-74.04613,4.722399
-74.04613,4.722399
-74.04613,4.722399
-74.04613,4.722399
-74.04613,4.722399
-74.04613,4.722399
-74.04613,4.722399
-74.04613,4.722399
-74.04613,4.722399
-74.04613,4.722399
-74.04613,4.722399
-74.04613,4.722399
-74.04613,4.722399
-74.04613,4.722399
-74.04613,4.722399
-74.04613,4.722399
-74.04613,4.722399
-74.04613,4.722399
-74.04613,4.722399
-74.04613,4.722399
-74.04613,4.722399
-74.04613,4.722399
-74.04613,4.722399
-74.04613,4.722399
-74.04613,4.722399
-74.04613,4.722399
-74.04613,4.722399
-74.04613,4.722399
-74.04613,4.722399
-74.04613,4.722399
-74.04613,4.722399
-74.04613,4.722399
-74.04613,4.722399
-74.04613,4.722399
-74.04613,4.722399
-74.04613,4.722399
-74.04613,4.722399
-74.04613,4.722399
-74.04613,4.722399
-74.04613,4.722399
-74.04613,4.722399
-74.04613,4.722399
-74.04613,4.722399
-74.04613,4.722399
-74.04613,4.722399
-74.04613,4.722399
-74.04613,4.722399
-74.04613,4.722399
-74.04613,4.722399
-74.04613,4.722399
-74.04613,4.722399
-74.04613,4.722399
-74.04613,4.722399
-74.04613,4.722399
-74.04613,4.722399
-74.04613,4.722399
-74.04613,4.722399
-74.04613,4.722399
-74.04613,4.722399
-74.04613,4.722399
-74.04613,4.722399
-74.04613,4.722399
-74.04613,4.722399
-74.04613,4.722399
-74.04613,4.722399
-74.04613,4.722399
-74.04613,4.722399
-74.04613,4.722399
-74.04613,4.722399
-74.04613,4.722399
-74.04613,4.722399
-74.04613,4.722399
-74.04613,4.722399
-74.04613,4.722399
-74.04613,4.722399
-74.04613,4.722399
-74.04613,4.722399
-74.04613,4.722399
-74.04613,4.722399
-74.04613,4.722399
-74.04613,4.722399
-74.04613,4.722399
-74.04613,4.722399
-74.04613,4.722399
-74.04613,4.722399
-74.04613,4.722399
-74.04613,4.722399
-74.04613,4.722399
-74.04613,4.722399
-74.04613,4.722399
-74.04613,4.722399
-74.04613,4.722399
-74.04613,4.722399
-74.04613,4.722399
-74.04613,4.722399
-74.04613,4.722399
-74.04613,4.722399
-74.04613,4.722399
-74.04613,4.722399
-74.04613,4.722399
-74.04613,4.722399
-74.04613,4.722399
-74.04613,4.722399
-74.04613,4.722399
-74.04613,4.722399
-74.04613,4.722399
-74.04613,4.722399
-74.04613,4.722399
-74.04613,4.722399
-74.04613,4.722399
-74.04613,4.722399
-74.04613,4.722399
-74.04613,4.722399
-74.04613,4.722399
-74.04613,4.722399
-74.04613,4.722399
-74.04613,4.722399
-74.04613,4.722399
-74.04613,4.722399
-74.04613,4.722399
-74.04613,4.722399
-74.04613,4.722399
-74.04613,4.722399
-74.04613,4.722399
-74.04613,4.722399
-74.04613,4.722399
-74.04613,4.722399
-74.04613,4.722399
-74.04613,4.722399
-74.04613,4.722399
-74.04613,4.722399
-74.04613,4.722399
-74.04613,4.722399
-74.04613,4.722399
-74.04613,4.722399
-74.04613,4.722399
-74.04613,4.722399
-74.04613,4.722399
-74.04613,4.722399
-74.04613,4.722399
-74.04613,4.722399
-74.04613,4.722399
-74.04613,4.722399
-74.04613,4.722399
-74.04613,4.722399
-74.04613,4.722399
-74.04613,4.722399
-74.04613,4.722399
-74.04613,4.722399
-74.04613,4.722399
-74.04613,4.722399
-74.04613,4.722399
-74.04613,4.722399
-74.04613,4.722399
-74.04613,4.722399
-74.04613,4.722399
-74.04613,4.722399
-74.04613,4.722399
-74.04613,4.722399
-74.04613,4.722399
-74.04613,4.722399
-74.04613,4.722399
-74.04613,4.722399
-74.04613,4.722399
-74.04613,4.722399
-74.04613,4.722399
-74.04613,4.722399
-74.04613,4.722399
-74.04613,4.722399
-74.04613,4.722399
-74.04613,4.722399
-74.04613,4.722399
-74.04613,4.722399
-74.04613,4.722399
-74.04613,4.722399
-74.04613,4.722399
-74.04613,4.722399
-74.04613,4.722399
-74.04613,4.722399
-74.04613,4.722399
-74.04613,4.722399
-74.04613,4.722399
-74.04613,4.722399
-74.04613,4.722399
-74.04613,4.722399
-74.04613,4.722399
-74.04613,4.722399
-74.04613,4.722399
-74.04613,4.722399
-74.04613,4.722399
-74.04613,4.722399
-74.04613,4.722399
-74.04613,4.722399
-74.04613,4.722399
-74.04613,4.722399
-74.04613,4.722399
-74.04613,4.722399
-74.04613,4.722399
-74.04613,4.722399
-74.04613,4.722399
-74.04613,4.722399
-74.04613,4.722399
-74.04613,4.722399
-74.04613,4.722399
-74.04613,4.722399
-74.04613,4.722399
-74.04613,4.722399
-74.04613,4.722399
-74.04613,4.722399
-74.04613,4.722399
-74.04613,4.722399
-74.04613,4.722399
-74.04613,4.722399
-74.04613,4.722399
-74.04613,4.722399
-74.04613,4.722399
-74.04613,4.722399
-74.04613,4.722399
-74.04613,4.722399
-74.04613,4.722399
-74.04613,4.722399
-74.04613,4.722399
-74.04613,4.722399
-74.04613,4.722399
-74.04613,4.722399
-74.04613,4.722399
-74.04613,4.722399
-74.04613,4.722399
-74.04613,4.722399
-74.04613,4.722399
-74.04613,4.722399
-74.04613,4.722399
-74.04613,4.722399
-74.04613,4.722399
-74.04613,4.722399
-74.04613,4.722399
-74.04613,4.722399
-74.04613,4.722399
-74.04613,4.722399
-74.04613,4.722399
-74.04613,4.722399
-74.04613,4.722399
-74.04613,4.722399
-74.04613,4.722399
-74.04613,4.722399
-74.04613,4.722399
-74.04613,4.722399
-74.04613,4.722399
-74.04613,4.722399
-74.04613,4.722399
-74.04613,4.722399
-74.04613,4.722399
-74.04613,4.722399
-74.04613,4.722399
-74.04613,4.722399
-74.04613,4.722399
-74.04613,4.722399
-74.04613,4.722399
-74.04613,4.722399
-74.04613,4.722399
-74.04613,4.722399
-74.04613,4.722399
-74.04613,4.722399
-74.04613,4.722399
-74.04613,4.722399
-74.04613,4.722399
-74.04613,4.722399
-74.04613,4.722399
-74.04613,4.722399
-74.04613,4.722399
-74.04613,4.722399
-74.04613,4.722399
-74.04613,4.722399
-74.04613,4.722399
-74.04613,4.722399
-74.04613,4.722399
-74.04613,4.722399
-74.04613,4.722399
-74.04613,4.722399
-74.04613,4.722399
-74.04613,4.722399
-74.04613,4.722399
-74.04613,4.722399
-74.04613,4.722399
-74.04613,4.722399
-74.04613,4.722399
-74.04613,4.722399
-74.04613,4.722399
-74.04613,4.722399
-74.04613,4.722399
-74.04613,4.722399
-74.04613,4.722399
-74.04613,4.722399
-74.04613,4.722399
-74.04613,4.722399
-74.04613,4.722399
-74.04613,4.722399
-74.04613,4.722399
-74.04613,4.722399
-74.04613,4.722399
-74.04613,4.722399
-74.04613,4.722399
-74.04613,4.722399
-74.04613,4.722399
-74.04613,4.722399
-74.04613,4.722399
-74.04613,4.722399
-74.04613,4.722399
-74.04613,4.722399
-74.04613,4.722399
-74.04613,4.722399
-74.04613,4.722399
-74.04613,4.722399
-74.04613,4.722399
-74.04613,4.722399
-74.04613,4.722399
-74.04613,4.722399
-74.04613,4.722399
-74.04613,4.722399
-74.04613,4.722399
-74.04613,4.722399
-74.04613,4.722399
-74.04613,4.722399
-74.04613,4.722399
-74.04613,4.722399
-74.04613,4.722399
-74.04613,4.722399
-74.04613,4.722399
-74.04613,4.722399
-74.04613,4.722399
-74.04613,4.722399
-74.04613,4.722399
-74.04613,4.722399
-74.04613,4.722399
-74.04613,4.722399
-74.04613,4.722399
-74.04613,4.722399
-74.04613,4.722399
-74.04613,4.722399
-74.04613,4.722399
-74.04613,4.722399
-74.04613,4.722399
-74.04613,4.722399
-74.04613,4.722399
-74.04613,4.722399
-74.04613,4.722399
-74.04613,4.722399
-74.04613,4.722399
-74.04613,4.722399
-74.04613,4.722399
-74.04613,4.722399
-74.04613,4.722399
-74.04613,4.722399
-74.04613,4.722399
-74.04613,4.722399
-74.04613,4.722399
-74.04613,4.722399
-74.04613,4.722399
-74.04613,4.722399
-74.04613,4.722399
-74.04613,4.722399
-74.04613,4.722399
-74.04613,4.722399
-74.04613,4.722399
-74.04613,4.722399
-74.04613,4.722399
-74.04613,4.722399
-74.04613,4.722399
-74.04613,4.722399
-74.04613,4.722399
-74.04613,4.722399
-74.04613,4.722399
-74.04613,4.722399
-74.04613,4.722399
-74.04613,4.722399
-74.04613,4.722399
-74.04613,4.722399
-74.04613,4.722399
-74.04613,4.722399
-74.04613,4.722399
-74.04613,4.722399
-74.04613,4.722399
-74.04613,4.722399
-74.04613,4.722399
-74.04613,4.722399
-74.04613,4.722399
-74.04613,4.722399
-74.04613,4.722399
-74.04613,4.722399
-74.04613,4.722399
-74.04613,4.722399
-74.04613,4.722399
-74.04613,4.722399
-74.04613,4.722399
-74.04613,4.722399
-74.04613,4.722399
-74.04613,4.722399
-74.04613,4.722399
-74.04613,4.722399
-74.04613,4.722399
-74.04613,4.722399
-74.04613,4.722399
-74.04613,4.722399
-74.04613,4.722399
-74.04613,4.722399
-74.04613,4.722399
-74.04613,4.722399
-74.04613,4.722399
-74.04613,4.722399
-74.04613,4.722399
-74.04613,4.722399
-74.04613,4.722399
-74.04613,4.722399
-74.04613,4.722399
-74.04613,4.722399
-74.04613,4.722399
-74.04613,4.722399
-74.04613,4.722399
-74.04613,4.722399
-74.04613,4.722399
-74.04613,4.722399
-74.04613,4.722399
-74.04613,4.722399
-74.04613,4.722399
-74.04613,4.722399
-74.04613,4.722399
-74.04613,4.722399
-74.04613,4.722399
-74.04613,4.722399
-74.04613,4.722399
-74.04613,4.722399
-74.04613,4.722399
-74.04613,4.722399
-74.04613,4.722399
-74.04613,4.722399
-74.04613,4.722399
-74.04613,4.722399
-74.04613,4.722399
-74.04613,4.722399
-74.04613,4.722399
-74.04613,4.722399
-74.04613,4.722399
-74.04613,4.722399
-74.04613,4.722399
-74.04613,4.722399
-74.04613,4.722399
-74.04613,4.722399
-74.04613,4.722399
-74.04613,4.722399
-74.04613,4.722399
-74.04613,4.722399
-74.04613,4.722399
-74.04613,4.722399
-74.04613,4.722399
-74.04613,4.722399
-74.04613,4.722399
-74.04613,4.722399
-74.04613,4.722399
-74.04613,4.722399
-74.04613,4.722399
-74.04613,4.722399
-74.04613,4.722399
-74.04613,4.722399
-74.04613,4.722399
-74.04613,4.722399
-74.04613,4.722399
-74.04613,4.722399
-74.04613,4.722399
-74.04613,4.722399
-74.04613,4.722399
-74.04613,4.722399
-74.04613,4.722399
-74.04613,4.722399
-74.04613,4.722399
-74.04613,4.722399
-74.04613,4.722399
-74.04613,4.722399
-74.04613,4.722399
-74.04613,4.722399
-74.04613,4.722399
-74.04613,4.722399
-74.04613,4.722399
-74.04613,4.722399
-74.04613,4.722399
-74.04613,4.722399
-74.04613,4.722399
-74.04613,4.722399
-74.04613,4.722399
-74.04613,4.722399
-74.04613,4.722399
-74.04613,4.722399
-74.04613,4.722399
-74.04613,4.722399
-74.04613,4.722399
-74.04613,4.722399
-74.04613,4.722399
-74.04613,4.722399
-74.04613,4.722399
-74.04613,4.722399
-74.04613,4.722399
-74.04613,4.722399
-74.04613,4.722399
-74.04613,4.722399
-74.04613,4.722399
-74.04613,4.722399
-74.04613,4.722399
-74.04613,4.722399
-74.04613,4.722399
-74.04613,4.722399
-74.04613,4.722399
-74.04613,4.722399
-74.04613,4.722399
-74.04613,4.722399
-74.04613,4.722399
-74.04613,4.722399
-74.04613,4.722399
-74.04613,4.722399
-74.04613,4.722399
-74.04613,4.722399
-74.04613,4.722399
-74.04613,4.722399
-74.04613,4.722399
-74.04613,4.722399
-74.04613,4.722399
-74.04613,4.722399
-74.04613,4.722399
-74.04613,4.722399
-74.04613,4.722399
-74.04613,4.722399
-74.04613,4.722399
-74.04613,4.722399
-74.04613,4.722399
-74.04613,4.722399
-74.04613,4.722399
-74.04613,4.722399
-74.04613,4.722399
-74.04613,4.722399
-74.04613,4.722399
-74.04613,4.722399
-74.04613,4.722399
-74.04613,4.722399
-74.04613,4.722399
-74.04613,4.722399
-74.04613,4.722399
-74.04613,4.722399
-74.04613,4.722399
-74.04613,4.722399
-74.04613,4.722399
-74.04613,4.722399
-74.04613,4.722399
-74.04613,4.722399
-74.04613,4.722399
-74.04613,4.722399
-74.04613,4.722399
-74.04613,4.722399
-74.04613,4.722399
-74.04613,4.722399
-74.04613,4.722399
-74.04613,4.722399
-74.04613,4.722399
-74.04613,4.722399
-74.04613,4.722399
-74.04613,4.722399
-74.04613,4.722399
-74.04613,4.722399
-74.04613,4.722399
-74.04613,4.722399
-74.04613,4.722399
-74.04613,4.722399
-74.04613,4.722399
-74.04613,4.722399
-74.04613,4.722399
-74.04613,4.722399
-74.04613,4.722399
-74.04613,4.722399
-74.04613,4.722399
-74.04613,4.722399
-74.04613,4.722399
-74.04613,4.722399
-74.04613,4.722399
-74.04613,4.722399
-74.04613,4.722399
-74.04613,4.722399
-74.04613,4.722399
-74.04613,4.722399
-74.04613,4.722399
-74.04613,4.722399
-74.04613,4.722399
-74.04613,4.722399
-74.04613,4.722399
-74.04613,4.722399
-74.04613,4.722399
-74.04613,4.722399
-74.04613,4.722399
-74.04613,4.722399
-74.04613,4.722399
-74.04613,4.722399
-74.04613,4.722399
-74.04613,4.722399
-74.04613,4.722399
-74.04613,4.722399
-74.04613,4.722399
-74.04613,4.722399
-74.04613,4.722399
-74.04613,4.722399
-74.04613,4.722399
-74.04613,4.722399
-74.04613,4.722399
-74.04613,4.722399
-74.04613,4.722399
-74.04613,4.722399
-74.04613,4.722399
-74.04613,4.722399
-74.04613,4.722399
-74.04613,4.722399
-74.04613,4.722399
-74.04613,4.722399
-74.04613,4.722399
-74.04613,4.722399
-74.04613,4.722399
-74.04613,4.722399
-74.04613,4.722399
-74.04613,4.722399
-74.04613,4.722399
-74.04613,4.722399
-74.04613,4.722399
-74.04613,4.722399
-74.04613,4.722399
-74.04613,4.722399
-74.04613,4.722399
-74.04613,4.722399
-74.04613,4.722399
-74.04613,4.722399
-74.04613,4.722399
-74.04613,4.722399
-74.04613,4.722399
-74.04613,4.722399
-74.04613,4.722399
-74.04613,4.722399
-74.04613,4.722399
-74.04613,4.722399
-74.04613,4.722399
-74.04613,4.722399
-74.04613,4.722399
-74.04613,4.722399
-74.04613,4.722399
-74.04613,4.722399
-74.04613,4.722399
-74.04613,4.722399
-74.04613,4.722399
-74.04613,4.722399
-74.04613,4.722399
-74.04613,4.722399
-74.04613,4.722399
-74.04613,4.722399
-74.04613,4.722399
-74.04613,4.722399
-74.04613,4.722399
-74.04613,4.722399
-74.04613,4.722399
-74.04613,4.722399
-74.04613,4.722399
-74.04613,4.722399
-74.04613,4.722399
-74.04613,4.722399
-74.04613,4.722399
-74.04613,4.722399
-74.04613,4.722399
-74.04613,4.722399
-74.04613,4.722399
-74.04613,4.722399
-74.04613,4.722399
-74.04613,4.722399
-74.04613,4.722399
-74.04613,4.722399
-74.04613,4.722399
-74.04613,4.722399
-74.04613,4.722399
-74.04613,4.722399
-74.04613,4.722399
-74.04613,4.722399
-74.04613,4.722399
-74.04613,4.722399
-74.04613,4.722399
-74.04613,4.722399
-74.04613,4.722399
-74.04613,4.722399
-74.04613,4.722399
-74.04613,4.722399
-74.04613,4.722399
-74.04613,4.722399
-74.04613,4.722399
-74.04613,4.722399
-74.04613,4.722399
-74.04613,4.722399
-74.04613,4.722399
-74.04613,4.722399
-74.04613,4.722399
-74.04613,4.722399
-74.04613,4.722399
-74.04613,4.722399
-74.04613,4.722399
-74.04613,4.722399
-74.04613,4.722399
-74.04613,4.722399
-74.04613,4.722399
-74.04613,4.722399
-74.04613,4.722399
-74.04613,4.722399
-74.04613,4.722399
-74.04613,4.722399
-74.04613,4.722399
-74.04613,4.722399
-74.04613,4.722399
-74.04613,4.722399
-74.04613,4.722399
-74.04613,4.722399
-74.04613,4.722399
-74.04613,4.722399
-74.04613,4.722399
-74.04613,4.722399
-74.04613,4.722399
-74.04613,4.722399
-74.04613,4.722399
-74.04613,4.722399
-74.04613,4.722399
-74.04613,4.722399
-74.04613,4.722399
-74.04613,4.722399
-74.04613,4.722399
-74.04613,4.722399
-74.04613,4.722399
-74.04613,4.722399
-74.04613,4.722399
-74.04613,4.722399
-74.04613,4.722399
-74.04613,4.722399
-74.04613,4.722399
-74.04613,4.722399
-74.04613,4.722399
-74.04613,4.722399
-74.04613,4.722399
-74.04613,4.722399
-74.04613,4.722399
-74.04613,4.722399
-74.04613,4.722399
-74.04613,4.722399
-74.04613,4.722399
-74.04613,4.722399
-74.04613,4.722399
-74.04613,4.722399
-74.04613,4.722399
-74.04613,4.722399
-74.04613,4.722399
-74.04613,4.722399
-74.04613,4.722399
-74.04613,4.722399
-74.04613,4.722399
-74.04613,4.722399
-74.04613,4.722399
-74.04613,4.722399
-74.04613,4.722399
-74.04613,4.722399
-74.04613,4.722399
-74.04613,4.722399
-74.04613,4.722399
-74.04613,4.722399
-74.04613,4.722399
-74.04613,4.722399
-74.04613,4.722399
-74.04613,4.722399
-74.04613,4.722399
-74.04613,4.722399
-74.04613,4.722399
-74.04613,4.722399
-74.04613,4.722399
-74.04613,4.722399
-74.04613,4.722399
-74.04613,4.722399
-74.04613,4.722399
-74.04613,4.722399
-74.04613,4.722399
-74.04613,4.722399
-74.04613,4.722399
-74.04613,4.722399
-74.04613,4.722399
-74.04613,4.722399
-74.04613,4.722399
-74.04613,4.722399
-74.04613,4.722399
-74.04613,4.722399
-74.04613,4.722399
-74.04613,4.722399
-74.04613,4.722399
-74.04613,4.722399
-74.04613,4.722399
-74.04613,4.722399
-74.04613,4.722399
-74.04613,4.722399
-74.04613,4.722399
-74.04613,4.722399
-74.04613,4.722399
-74.04613,4.722399
-74.04613,4.722399
-74.04613,4.722399
-74.04613,4.722399
-74.04613,4.722399
-74.04613,4.722399
-74.04613,4.722399
-74.04613,4.722399
-74.04613,4.722399
-74.04613,4.722399
-74.04613,4.722399
-74.04613,4.722399
-74.04613,4.722399
-74.04613,4.722399
-74.04613,4.722399
-74.04613,4.722399
-74.04613,4.722399
-74.04613,4.722399
-74.04613,4.722399
-74.04613,4.722399
-74.04613,4.722399
-74.04613,4.722399
-74.04613,4.722399
-74.04613,4.722399
-74.04613,4.722399
-74.04613,4.722399
-74.04613,4.722399
-74.04613,4.722399
-74.04613,4.722399
-74.04613,4.722399
-74.04613,4.722399
-74.04613,4.722399
-74.04613,4.722399
-74.04613,4.722399
-74.04613,4.722399
-74.04613,4.722399
-74.04613,4.722399
-74.04613,4.722399
-74.04613,4.722399
-74.04613,4.722399
-74.04613,4.722399
-74.04613,4.722399
-74.04613,4.722399
-74.04613,4.722399
-74.04613,4.722399
-74.04613,4.722399
-74.04613,4.722399
-74.04613,4.722399
-74.04613,4.722399
-74.04613,4.722399
-74.04613,4.722399
-74.04613,4.722399
-74.04613,4.722399
-74.04613,4.722399
-74.04613,4.722399
-74.04613,4.722399
-74.04613,4.722399
-74.04613,4.722399
-74.04613,4.722399
-74.04613,4.722399
-74.04613,4.722399
-74.04613,4.722399
-74.04613,4.722399
-74.04613,4.722399
-74.04613,4.722399
-74.04613,4.722399
-74.04613,4.722399
-74.04613,4.722399
-74.04613,4.722399
-74.04613,4.722399
-74.04613,4.722399
-74.04613,4.722399
-74.04613,4.722399
-74.04613,4.722399
-74.04613,4.722399
-74.04613,4.722399
-74.04613,4.722399
-74.04613,4.722399
-74.04613,4.722399
-74.04613,4.722399
-74.04613,4.722399
-74.04613,4.722399
-74.04613,4.722399
-74.04613,4.722399
-74.04613,4.722399
-74.04613,4.722399
-74.04613,4.722399
-74.04613,4.722399
-74.04613,4.722399
-74.04613,4.722399
-74.04613,4.722399
-74.04613,4.722399
-74.04613,4.722399
-74.04613,4.722399
-74.04613,4.722399
-74.04613,4.722399
-74.04613,4.722399
-74.04613,4.722399
-74.04613,4.722399
-74.04613,4.722399
-74.04613,4.722399
-74.04613,4.722399
-74.04613,4.722399
-74.04613,4.722399
-74.04613,4.722399
-74.04613,4.722399
-74.04613,4.722399
-74.04613,4.722399
-74.04613,4.722399
-74.04613,4.722399
-74.04613,4.722399
-74.04613,4.722399
-74.04613,4.722399
-74.04613,4.722399
-74.04613,4.722399
-74.04613,4.722399
-74.04613,4.722399
-74.04613,4.722399
-74.04613,4.722399
-74.04613,4.722399
-74.04613,4.722399
-74.04613,4.722399
-74.04613,4.722399
-74.04613,4.722399
-74.04613,4.722399
-74.04613,4.722399
-74.04613,4.722399
-74.04613,4.722399
-74.04613,4.722399
-74.04613,4.722399
-74.04613,4.722399
-74.04613,4.722399
-74.04613,4.722399
-74.04613,4.722399
-74.04613,4.722399
-74.04613,4.722399
-74.04613,4.722399
-74.04613,4.722399
-74.04613,4.722399
-74.04613,4.722399
-74.04613,4.722399
-74.04613,4.722399
-74.04613,4.722399
-74.04613,4.722399
-74.04613,4.722399
-74.04613,4.722399
-74.04613,4.722399
-74.04613,4.722399
-74.04613,4.722399
-74.04613,4.722399
-74.04613,4.722399
-74.04613,4.722399
-74.04613,4.722399
-74.04613,4.722399
-74.04613,4.722399
-74.04613,4.722399
-74.04613,4.722399
-74.04613,4.722399
-74.04613,4.722399
-74.04613,4.722399
-74.04613,4.722399
-74.04613,4.722399
-74.04613,4.722399
-74.04613,4.722399
-74.04613,4.722399
-74.04613,4.722399
-74.04613,4.722399
-74.04613,4.722399
-74.04613,4.722399
-74.04613,4.722399
-74.04613,4.722399
-74.04613,4.722399
-74.04613,4.722399
-74.04613,4.722399
-74.04613,4.722399
-74.04613,4.722399
-74.04613,4.722399
-74.04613,4.722399
-74.04613,4.722399
-74.04613,4.722399
-74.04613,4.722399
-74.04613,4.722399
-74.04613,4.722399
-74.04613,4.722399
-74.04613,4.722399
-74.04613,4.722399
-74.04613,4.722399
-74.04613,4.722399
-74.04613,4.722399
-74.04613,4.722399
-74.04613,4.722399
-74.04613,4.722399
-74.04613,4.722399
-74.04613,4.722399
-74.04613,4.722399
-74.04613,4.722399
-74.04613,4.722399
-74.04613,4.722399
-74.04613,4.722399
-74.04613,4.722399
-74.04613,4.722399
-74.04613,4.722399
-74.04613,4.722399
-74.04613,4.722399
-74.04613,4.722399
-74.04613,4.722399
-74.04613,4.722399
-74.04613,4.722399
-74.04613,4.722399
-74.04613,4.722399
-74.04613,4.722399
-74.04613,4.722399
-74.04613,4.722399
-74.04613,4.722399
-74.04613,4.722399
-74.04613,4.722399
-74.04613,4.722399
-74.04613,4.722399
-74.04613,4.722399
-74.04613,4.722399
-74.04613,4.722399
-74.04613,4.722399
-74.04613,4.722399
-74.04613,4.722399
-74.04613,4.722399
-74.04613,4.722399
-74.04613,4.722399
-74.04613,4.722399
-74.04613,4.722399
-74.04613,4.722399
-74.04613,4.722399
-74.04613,4.722399
-74.04613,4.722399
-74.04613,4.722399
-74.04613,4.722399
-74.04613,4.722399
-74.04613,4.722399
-74.04613,4.722399
-74.04613,4.722399
-74.04613,4.722399
-74.04613,4.722399
-74.04613,4.722399
-74.04613,4.722399
-74.04613,4.722399
-74.04613,4.722399
-74.04613,4.722399
-74.04613,4.722399
-74.04613,4.722399
-74.04613,4.722399
-74.04613,4.722399
-74.04613,4.722399
-74.04613,4.722399
-74.04613,4.722399
-74.04613,4.722399
-74.04613,4.722399
-74.04613,4.722399
-74.04613,4.722399
-74.04613,4.722399
-74.04613,4.722399
-74.04613,4.722399
-74.04613,4.722399
-74.04613,4.722399
-74.04613,4.722399
-74.04613,4.722399
-74.04613,4.722399
-74.04613,4.722399
-74.04613,4.722399
-74.04613,4.722399
-74.04613,4.722399
-74.04613,4.722399
-74.04613,4.722399
-74.04613,4.722399
-74.04613,4.722399
-74.04613,4.722399
-74.04613,4.722399
-74.04613,4.722399
-74.04613,4.722399
-74.04613,4.722399
-74.04613,4.722399
-74.04613,4.722399
-74.04613,4.722399
-74.04613,4.722399
-74.04613,4.722399
-74.04613,4.722399
-74.04613,4.722399
-74.04613,4.722399
-74.04613,4.722399
-74.04613,4.722399
-74.04613,4.722399
-74.04613,4.722399
-74.04613,4.722399
-74.04613,4.722399
-74.04613,4.722399
-74.04613,4.722399
-74.04613,4.722399
-74.04613,4.722399
-74.04613,4.722399
-74.04613,4.722399
-74.04613,4.722399
-74.04613,4.722399
-74.04613,4.722399
-74.04613,4.722399
-74.04613,4.722399
-74.04613,4.722399
-74.04613,4.722399
-74.04613,4.722399
-74.04613,4.722399
-74.04613,4.722399
-74.04613,4.722399
-74.04613,4.722399
-74.04613,4.722399
-74.04613,4.722399
-74.04613,4.722399
-74.04613,4.722399
-74.04613,4.722399
-74.04613,4.722399
-74.04613,4.722399
-74.04613,4.722399
-74.04613,4.722399
-74.04613,4.722399
-74.04613,4.722399
-74.04613,4.722399
-74.04613,4.722399
-74.04613,4.722399
-74.04613,4.722399
-74.04613,4.722399
-74.04613,4.722399
-74.04613,4.722399
-74.04613,4.722399
-74.04613,4.722399
-74.04613,4.722399
-74.04613,4.722399
-74.04613,4.722399
-74.04613,4.722399
-74.04613,4.722399
-74.04613,4.722399
-74.04613,4.722399
-74.04613,4.722399
-74.04613,4.722399
-74.04613,4.722399
-74.04613,4.722399
-74.04613,4.722399
-74.04613,4.722399
-74.04613,4.722399
-74.04613,4.722399
-74.04613,4.722399
-74.04613,4.722399
-74.04613,4.722399
-74.04613,4.722399
-74.04613,4.722399
-74.04613,4.722399
-74.04613,4.722399
-74.04613,4.722399
-74.04613,4.722399
-74.04613,4.722399
-74.04613,4.722399
-74.04613,4.722399
-74.04613,4.722399
-74.04613,4.722399
-74.04613,4.722399
-74.04613,4.722399
-74.04613,4.722399
-74.04613,4.722399
-74.04613,4.722399
-74.04613,4.722399
-74.04613,4.722399
-74.04613,4.722399
-74.04613,4.722399
-74.04613,4.722399
-74.04613,4.722399
-74.04613,4.722399
-74.04613,4.722399
-74.04613,4.722399
-74.04613,4.722399
-74.04615,4.722409
-74.046165,4.722419
-74.04618,4.72243
-74.0462,4.72244
-74.04622,4.72245
-74.046234,4.72246
-74.04624,4.722473
-74.04625,4.722485
-74.04626,4.722493
-74.046265,4.722502
-74.046265,4.72251
-74.046265,4.72252
-74.046265,4.722527
-74.046265,4.722537
-74.046265,4.722546
-74.04626,4.722556
-74.04626,4.722567
-74.04625,4.722579
-74.04625,4.722591
-74.04625,4.722602
-74.04624,4.722611
-74.04624,4.72262
-74.046234,4.722628
-74.046234,4.722635
-74.04624,4.722643
-74.046234,4.722652
-74.046234,4.72266
-74.04623,4.72267
-74.04622,4.722682
-74.04622,4.722692
-74.04622,4.722703
-74.04623,4.722713
-74.04622,4.722721
-74.04622,4.722732
-74.04622,4.722742
-74.04621,4.722752
-74.04621,4.722761
-74.04621,4.722772
-74.04621,4.722785
-74.0462,4.722789
-74.04621,4.7228
-74.0462,4.722813
-74.0462,4.722824
-74.04622,4.722843
-74.04622,4.722859
-74.04623,4.722865
-74.04623,4.722874
-74.04623,4.722885
-74.04623,4.722897
-74.04623,4.722907
-74.04623,4.722917
-74.04623,4.722924
-74.04622,4.722937
-74.04622,4.722949
-74.04622,4.72296
-74.04622,4.722968
-74.04621,4.722983
-74.04621,4.722996
-74.0462,4.723003
-74.0462,4.723011
-74.046196,4.723021
-74.046196,4.723031
-74.04619,4.723041
-74.04619,4.723051
-74.04618,4.723062
-74.04618,4.723074
-74.04618,4.723087
-74.04618,4.723097
-74.04617,4.723113
-74.04617,4.723125
-74.04617,4.723136
-74.046165,4.723147
-74.046165,4.723156
-74.046165,4.723165
-74.046165,4.723177
-74.04616,4.723185
-74.04615,4.723192
-74.04615,4.723203
-74.04614,4.723215
-74.046135,4.723224
-74.04612,4.723234
-74.04611,4.723247
-74.04611,4.723256
-74.04611,4.723266
-74.04611,4.723279
-74.04611,4.723294
-74.04612,4.723308
-74.04611,4.723318
-74.04611,4.723328
-74.046104,4.723338
-74.046104,4.723348
-74.046104,4.723358
-74.046104,4.723366
-74.046104,4.723375
-74.046104,4.723384
-74.0461,4.723401
-74.0461,4.723413
-74.0461,4.723424
-74.0461,4.72343
-74.0461,4.72344
-74.0461,4.723447
-74.0461,4.723455
-74.0461,4.723466
-74.04609,4.723479
-74.04609,4.723489
-74.04609,4.7235
-74.04609,4.723511
-74.04608,4.723522
-74.04608,4.723532
-74.04608,4.723546
-74.04609,4.723558
-74.04609,4.723572
-74.04608,4.723581
-74.04608,4.723593
-74.04608,4.723599
-74.046074,4.723615
-74.046074,4.723619
-74.046074,4.723632
-74.046074,4.723646
-74.04607,4.723658
-74.04607,4.723669
-74.04606,4.723684
-74.04605,4.723698
-74.046036,4.723713
-74.04603,4.723728
-74.04601,4.723743
-74.046005,4.723758
-74.04599,4.723772
-74.04599,4.723772
-74.04599,4.723772
-74.04599,4.723772
-74.04599,4.723772
-74.04599,4.723772
-74.04599,4.723772
-74.04599,4.723772
-74.04599,4.723772
-74.04599,4.723772
-74.04599,4.723772
-74.04599,4.723772
-74.04599,4.723772
-74.04599,4.723772
-74.04599,4.723772
-74.04599,4.723772
-74.04599,4.723772
-74.04599,4.723772
-74.04599,4.723772
-74.04599,4.723772
-74.04599,4.723772
-74.04599,4.723772
-74.04599,4.723772
-74.04599,4.723772
-74.04599,4.723772
-74.04599,4.723772
-74.04599,4.723772
-74.04599,4.723772
-74.04599,4.723772
-74.04599,4.723772
-74.04599,4.723772
-74.04599,4.723772
-74.04599,4.723772
-74.04599,4.723772
-74.04599,4.723772
-74.04599,4.723772
-74.04599,4.723772
-74.04599,4.723772
-74.04599,4.723772
-74.04599,4.723772
-74.04599,4.723772
-74.04599,4.723772
-74.04599,4.723772
-74.04599,4.723772
-74.04599,4.723772
-74.04599,4.723772
-74.04599,4.723772
-74.04599,4.723772
-74.04599,4.723772
-74.04599,4.723772
-74.04599,4.723772
-74.04599,4.723772
-74.04599,4.723772
-74.04599,4.723772
-74.04599,4.723772
-74.04599,4.723772
-74.04599,4.723772
-74.04599,4.723772
-74.04599,4.723772
-74.04599,4.723772
-74.04599,4.723772
-74.04599,4.723772
-74.04599,4.723772
-74.04599,4.723772
-74.04599,4.723772
-74.04599,4.723772
-74.04599,4.723772
-74.04599,4.723772
-74.04599,4.723772
-74.04599,4.723772
-74.04599,4.723772
-74.04599,4.723772
-74.04599,4.723772
-74.04599,4.723772
-74.04599,4.723772
-74.04599,4.723772
-74.04599,4.723772
-74.04599,4.723772
-74.04599,4.723772
-74.04599,4.723772
-74.04599,4.723772
-74.04599,4.723772
-74.04599,4.723772
-74.04599,4.723772
-74.04599,4.723772
-74.04599,4.723772
-74.04599,4.723772
-74.04599,4.723772
-74.04599,4.723772
-74.04599,4.723772
-74.04599,4.723772
-74.04599,4.723772
-74.04599,4.723772
-74.04599,4.723772
-74.04599,4.723772
-74.04599,4.723772
-74.04599,4.723772
-74.04599,4.723772
-74.04599,4.723772
-74.04599,4.723772
-74.04599,4.723772
-74.04599,4.723772
-74.04599,4.723772
-74.04599,4.723772
-74.04599,4.723772
-74.04599,4.723772
-74.04599,4.723772
-74.04599,4.723772
-74.04599,4.723772
-74.04599,4.723772
-74.04599,4.723772
-74.04599,4.723772
-74.04599,4.723772
-74.04599,4.723772
-74.04599,4.723772
-74.04599,4.723772
-74.04599,4.723772
-74.04599,4.723772
-74.04599,4.723772
-74.04599,4.723772
-74.04599,4.723772
-74.04599,4.723772
-74.04599,4.723772
-74.04599,4.723772
-74.04599,4.723772
-74.04599,4.723772
-74.04599,4.723772
-74.04599,4.723772
-74.04599,4.723772
-74.04599,4.723772
-74.04599,4.723772
-74.04599,4.723772
-74.04599,4.723772
-74.04599,4.723772
-74.04599,4.723772
-74.04599,4.723772
-74.04599,4.723772
-74.04599,4.723772
-74.04599,4.723772
-74.04599,4.723772
-74.04599,4.723772
-74.04599,4.723772
-74.04599,4.723772
-74.04599,4.723772
-74.04599,4.723772
-74.04599,4.723772
-74.04599,4.723772
-74.04599,4.723772
-74.04599,4.723772
-74.04599,4.723772
-74.04599,4.723772
-74.04599,4.723772
-74.04599,4.723772
-74.04599,4.723772
-74.04599,4.723772
-74.04599,4.723772
-74.04599,4.723772
-74.04599,4.723772
-74.04599,4.723772
-74.04599,4.723772
-74.04599,4.723772
-74.04599,4.723772
-74.04599,4.723772
-74.04599,4.723772
-74.04599,4.723772
-74.04599,4.723772
-74.04599,4.723772
-74.04599,4.723772
-74.04599,4.723772
-74.04599,4.723772
-74.04599,4.723772
-74.04599,4.723772
-74.04599,4.723772
-74.04599,4.723772
-74.04599,4.723772
-74.04599,4.723772
-74.04599,4.723772
-74.04599,4.723772
-74.04599,4.723772
-74.04599,4.723772
-74.04599,4.723772
-74.04599,4.723772
-74.04599,4.723772
-74.04599,4.723772
-74.04599,4.723772
-74.04599,4.723772
-74.04599,4.723772
-74.04599,4.723772
-74.04599,4.723772
-74.04599,4.723772
-74.04599,4.723772
-74.04599,4.723772
-74.04599,4.723772
-74.04599,4.723772
-74.04599,4.723772
-74.04599,4.723772
-74.04599,4.723772
-74.04599,4.723772
-74.04599,4.723772
-74.04599,4.723772
-74.04599,4.723772
-74.04599,4.723772
-74.04599,4.723772
-74.04599,4.723772
-74.04599,4.723772
-74.04599,4.723772
-74.04599,4.723772
-74.04599,4.723772
-74.04599,4.723772
-74.04599,4.723772
-74.04599,4.723772
-74.04599,4.723772
-74.04599,4.723772
-74.04599,4.723772
-74.04599,4.723772
-74.04599,4.723772
-74.04599,4.723772
-74.04599,4.723772
-74.04599,4.723772
-74.04599,4.723772
-74.04599,4.723772
-74.04599,4.723772
-74.04599,4.723772
-74.04599,4.723772
-74.04599,4.723772
-74.04599,4.723772
-74.04599,4.723772
-74.04599,4.723772
-74.04599,4.723772
-74.04599,4.723772
-74.04599,4.723772
-74.04599,4.723772
-74.04599,4.723772
-74.04599,4.723772
-74.04599,4.723772
-74.04599,4.723772
-74.04599,4.723772
-74.04599,4.723772
-74.04599,4.723772
-74.04599,4.723772
-74.04599,4.723772
-74.04599,4.723772
-74.04599,4.723772
-74.04599,4.723772
-74.04599,4.723772
-74.04599,4.723772
-74.04599,4.723772
-74.04599,4.723772
-74.04599,4.723772
-74.04599,4.723772
-74.04599,4.723772
-74.04599,4.723772
-74.04599,4.723772
-74.04599,4.723772
-74.04599,4.723772
-74.04599,4.723772
-74.04599,4.723772
-74.04599,4.723772
-74.04599,4.723772
-74.04599,4.723772
-74.04599,4.723772
-74.04599,4.723772
-74.04599,4.723772
-74.04599,4.723772
-74.04599,4.723772
-74.04599,4.723772
-74.04599,4.723772
-74.04599,4.723772
-74.04599,4.723772
-74.04599,4.723772
-74.04599,4.723772
-74.04599,4.723772
-74.04599,4.723772
-74.04599,4.723772
-74.04599,4.723772
-74.04599,4.723772
-74.04599,4.723772
-74.04599,4.723772
-74.04599,4.723772
-74.04599,4.723772
-74.04599,4.723772
-74.04599,4.723772
-74.04599,4.723772
-74.04599,4.723772
-74.04599,4.723772
-74.04599,4.723772
-74.04599,4.723772
-74.04599,4.723772
-74.04599,4.723772
-74.04599,4.723772
-74.04599,4.723772
-74.04599,4.723772
-74.04599,4.723772
-74.04599,4.723772
-74.04599,4.723772
-74.04599,4.723772
-74.04599,4.723772
-74.04599,4.723772
-74.04599,4.723772
-74.04599,4.723772
-74.04599,4.723772
-74.04599,4.723772
-74.04599,4.723772
-74.04599,4.723772
-74.04599,4.723772
-74.04599,4.723772
-74.04599,4.723772
-74.04599,4.723772
-74.04599,4.723772
-74.04599,4.723772
-74.04599,4.723772
-74.04599,4.723772
-74.04599,4.723772
-74.04599,4.723772
-74.04599,4.723772
-74.04599,4.723772
-74.04599,4.723772
-74.04599,4.723772
-74.04599,4.723772
-74.04599,4.723772
-74.04599,4.723772
-74.04599,4.723772
-74.04599,4.723772
-74.04599,4.723772
-74.04599,4.723772
-74.04599,4.723772
-74.04599,4.723772
-74.04599,4.723772
-74.04599,4.723772
-74.04599,4.723772
-74.04599,4.723772
-74.04599,4.723772
-74.04599,4.723772
-74.04599,4.723772
-74.04599,4.723772
-74.04599,4.723772
-74.04599,4.723772
-74.04599,4.723772
-74.04599,4.723772
-74.04599,4.723772
-74.04599,4.723772
-74.04599,4.723772
-74.04599,4.723772
-74.04599,4.723772
-74.04599,4.723772
-74.04599,4.723772
-74.04599,4.723772
-74.04599,4.723772
-74.04599,4.723772
-74.04599,4.723772
-74.04599,4.723772
-74.04599,4.723772
-74.04599,4.723772
-74.04599,4.723772
-74.04599,4.723772
-74.04599,4.723772
-74.04599,4.723772
-74.04599,4.723772
-74.04599,4.723772
-74.04599,4.723772
-74.04599,4.723772
-74.04599,4.723772
-74.04599,4.723772
-74.04599,4.723772
-74.04599,4.723772
-74.04599,4.723772
-74.04599,4.723772
-74.04599,4.723772
-74.04599,4.723772
-74.04599,4.723772
-74.04599,4.723772
-74.04599,4.723772
-74.04599,4.723772
-74.04599,4.723772
-74.04599,4.723772
-74.04599,4.723772
-74.04599,4.723772
-74.04599,4.723772
-74.04599,4.723772
-74.04599,4.723772
-74.04599,4.723772
-74.04599,4.723772
-74.04599,4.723772
-74.04599,4.723772
-74.04599,4.723772
-74.04599,4.723772
-74.04599,4.723772
-74.04599,4.723772
-74.04599,4.723772
-74.04599,4.723772
-74.04599,4.723772
-74.04599,4.723772
-74.04599,4.723772
-74.04599,4.723772
-74.04599,4.723772
-74.04599,4.723772
-74.04599,4.723772
-74.04599,4.723772
-74.04599,4.723772
-74.04599,4.723772
-74.04599,4.723772
-74.04599,4.723772
-74.04599,4.723772
-74.04599,4.723772
-74.04599,4.723772
-74.04599,4.723772
-74.04599,4.723772
-74.04599,4.723772
-74.04599,4.723772
-74.04599,4.723772
-74.04599,4.723772
-74.04599,4.723772
-74.04599,4.723772
-74.04599,4.723772
-74.04599,4.723772
-74.04599,4.723772
-74.04599,4.723772
-74.04599,4.723772
-74.04599,4.723772
-74.04599,4.723772
-74.04599,4.723772
-74.04599,4.723772
-74.04599,4.723772
-74.04599,4.723772
-74.04599,4.723772
-74.04599,4.723772
-74.04599,4.723772
-74.04599,4.723772
-74.04599,4.723772
-74.04599,4.723772
-74.04599,4.723772
-74.04599,4.723772
-74.04599,4.723772
-74.04599,4.723772
-74.04599,4.723772
-74.04599,4.723772
-74.04599,4.723772
-74.04599,4.723772
-74.04599,4.723772
-74.04599,4.723772
-74.04599,4.723772
-74.04599,4.723772
-74.04599,4.723772
-74.04599,4.723772
-74.04599,4.723772
-74.04599,4.723772
-74.04599,4.723772
-74.04599,4.723772
-74.04599,4.723772
-74.04599,4.723772
-74.04599,4.723772
-74.04599,4.723772
-74.04599,4.723772
-74.04599,4.723772
-74.04599,4.723772
-74.04599,4.723772
-74.04599,4.723772
-74.04599,4.723772
-74.04599,4.723772
-74.04599,4.723772
-74.04599,4.723772
-74.04599,4.723772
-74.04599,4.723772
-74.04599,4.723772
-74.046,4.72379
-74.046005,4.723807
-74.046005,4.723824
-74.04601,4.723841
-74.04602,4.723859
-74.04603,4.723876
-74.046036,4.723893
-74.046036,4.72391
-74.046036,4.723912
-74.04604,4.723909
-74.04604,4.723915
-74.04604,4.723916
-74.046036,4.723921
-74.046036,4.723924
-74.04602,4.723935
-74.04601,4.723944
-74.046,4.723948
-74.04598,4.723953
-74.04598,4.723971
-74.04597,4.723984
-74.04596,4.723984
-74.04595,4.723982
-74.04595,4.723975
-74.04595,4.72398
-74.045944,4.723988
-74.04594,4.724001
-74.04594,4.724
-74.04593,4.724005
-74.04592,4.724007
-74.04592,4.724017
-74.04591,4.724029
-74.04591,4.724045
-74.04592,4.724055
-74.04592,4.724061
-74.04592,4.724075
-74.04591,4.724084
-74.045906,4.724085
-74.04588,4.724059
-74.045876,4.724048
-74.04587,4.724044
-74.04586,4.724043
-74.04586,4.724059
-74.04586,4.724063
-74.04586,4.724067
-74.04585,4.724078
-74.04585,4.724075
-74.04585,4.724073
-74.04586,4.724065
-74.04587,4.724079
-74.04587,4.724077
-74.04586,4.724079
-74.04587,4.724083
-74.04586,4.724095
-74.04586,4.724096
-74.04587,4.724103
-74.04587,4.72411
-74.04587,4.724115
-74.04586,4.724118
-74.04586,4.724135
-74.04586,4.724144
-74.04586,4.724158
-74.04585,4.724169
-74.045845,4.724169
-74.04584,4.724177
-74.04583,4.724186
-74.04583,4.724197
-74.04583,4.724199
-74.04584,4.724229
-74.04584,4.724253
-74.04583,4.724301
-74.04583,4.724313
-74.04583,4.724327
-74.04582,4.72434
-74.04582,4.724352
-74.04582,4.724363
-74.045815,4.724374
-74.045815,4.724386
-74.04581,4.724396
-74.04581,4.724407
-74.0458,4.724417
-74.045815,4.724358
-74.04581,4.724357
-74.04581,4.724356
-74.045746,4.72439
-74.045746,4.72438
-74.04577,4.724389
-74.04578,4.724355
-74.04579,4.724295
-74.045784,4.724292
-74.045784,4.724258
-74.045784,4.724236
-74.0458,4.724263
-74.0458,4.724285
-74.045815,4.724354
-74.045815,4.724349
-74.04582,4.724343
-74.04582,4.724325
-74.04582,4.724325
-74.04583,4.724344
-74.04583,4.724344
-74.04581,4.724383
-74.04581,4.724383
-74.04581,4.724383
-74.045845,4.724393
-74.045876,4.724314
-74.045876,4.724251
-74.04589,4.724184
-74.04588,4.724144
-74.045876,4.724116
-74.04587,4.724102
-74.045906,4.724115
-74.04592,4.724089
-74.04593,4.724083
-74.04593,4.724083
-74.04593,4.724083
-74.045944,4.724096
-74.04581,4.720166
-74.04581,4.720166
-74.04581,4.720166
-74.04581,4.720166
-74.04581,4.720166
-74.04581,4.720166
-74.04581,4.720166
-74.04581,4.720166
-74.04581,4.720166
-74.04581,4.720166
-74.04581,4.720166
-74.04581,4.720166
-74.04581,4.720166
-74.04581,4.720166
-74.04581,4.720166
-74.04581,4.720166
-74.04581,4.720166
-74.04581,4.720166
-74.04581,4.720166
-74.04581,4.720166
-74.04581,4.720166
-74.04581,4.720166
-74.04581,4.720166
-74.04581,4.720166
-74.04581,4.720166
-74.04581,4.720166
-74.04581,4.720166
-74.04581,4.720166
-74.04581,4.720166
-74.04581,4.720166
-74.04581,4.720166
-74.04581,4.720166
-74.04581,4.720166
-74.04581,4.720166
-74.04581,4.720166
-74.04581,4.720166
-74.04581,4.720166
-74.04581,4.720166
-74.04581,4.720166
-74.04581,4.720166
-74.04581,4.720166
-74.04581,4.720166
-74.04581,4.720166
-74.04581,4.720166
-74.04581,4.720166
-74.04581,4.720166
-74.04581,4.720166
-74.04581,4.720166
-74.04581,4.720166
-74.04581,4.720166
-74.04581,4.720166
-74.04581,4.720166
-74.04581,4.720166
-74.04581,4.720166
-74.04581,4.720166
-74.04581,4.720166
-74.04581,4.720166
-74.04581,4.720166
-74.04581,4.720166
-74.04581,4.720166
-74.04581,4.720166
-74.04581,4.720166
-74.04581,4.720166
-74.04581,4.720166
-74.04581,4.720166
-74.04581,4.720166
-74.04581,4.720166
-74.04581,4.720166
-74.04581,4.720166
-74.04581,4.720166
-74.04581,4.720166
-74.04581,4.720166
-74.04581,4.720166
-74.04581,4.720166
-74.04581,4.720166
-74.04581,4.720166
-74.04581,4.720166
-74.04581,4.720166
-74.04581,4.720166
-74.04581,4.720166
-74.04581,4.720166
-74.04581,4.720166
-74.04581,4.720166
-74.04581,4.720166
-74.04581,4.720166
-74.04581,4.720166
-74.04581,4.720166
-74.04581,4.720166
-74.04581,4.720166
-74.04581,4.720166
-74.04581,4.720166
-74.04581,4.720166
-74.04581,4.720166
-74.04581,4.720166
-74.04581,4.720166
-74.04581,4.720166
-74.04581,4.720166
-74.04581,4.720166
-74.04581,4.720166
-74.04581,4.720166
-74.04581,4.720166
-74.04581,4.720166
-74.04581,4.720166
-74.04581,4.720166
-74.04581,4.720166
-74.04581,4.720166
-74.04581,4.720166
-74.04581,4.720166
-74.04581,4.720166
-74.04581,4.720166
-74.04581,4.720166
-74.04581,4.720166
-74.04581,4.720166
-74.04581,4.720166
-74.04581,4.720166
-74.04581,4.720166
-74.04581,4.720166
-74.04581,4.720166
-74.04581,4.720166
-74.04581,4.720166
-74.04581,4.720166
-74.04581,4.720166
-74.04581,4.720166
-74.04581,4.720166
-74.04581,4.720166
-74.04581,4.720166
-74.04581,4.720166
-74.04581,4.720166
-74.04581,4.720166
-74.04581,4.720166
-74.04581,4.720166
-74.04581,4.720166
-74.04581,4.720166
-74.04581,4.720166
-74.04581,4.720166
-74.04581,4.720166
-74.04581,4.720166
-74.04581,4.720166
-74.04581,4.720166
-74.04581,4.720166
-74.04581,4.720166
-74.04581,4.720166
-74.04581,4.720166
-74.04581,4.720166
-74.04581,4.720166
-74.04581,4.720166
-74.04581,4.720166
-74.04581,4.720166
-74.04581,4.720166
-74.04581,4.720166
-74.04581,4.720166
-74.04581,4.720166
-74.04581,4.720166
-74.04581,4.720166
-74.04581,4.720166
-74.04581,4.720166
-74.04581,4.720166
-74.04581,4.720166
-74.04581,4.720166
-74.04581,4.720166
-74.04581,4.720166
-74.04581,4.720166
-74.04581,4.720166
-74.04581,4.720166
-74.04581,4.720166
-74.04581,4.720166
-74.04581,4.720166
-74.04581,4.720166
-74.04581,4.720166
-74.04581,4.720166
-74.04581,4.720166
-74.04581,4.720166
-74.04581,4.720166
-74.04581,4.720166
-74.04581,4.720166
-74.04581,4.720166
-74.04581,4.720166
-74.04581,4.720166
-74.04581,4.720166
-74.04581,4.720166
-74.04581,4.720166
-74.04581,4.720166
-74.04581,4.720166
-74.04581,4.720166
-74.04581,4.720166
-74.04581,4.720166
-74.04581,4.720166
-74.04581,4.720166
-74.04581,4.720166
-74.04581,4.720166
-74.04581,4.720166
-74.04581,4.720166
-74.04581,4.720166
-74.04581,4.720166
-74.04581,4.720166
-74.04581,4.720166
-74.04581,4.720166
-74.04581,4.720166
-74.04581,4.720166
-74.04581,4.720166
-74.04581,4.720166
-74.04581,4.720166
-74.04581,4.720166
-74.04581,4.720166
-74.04581,4.720166
-74.04581,4.720166
-74.04581,4.720166
-74.04581,4.720166
-74.04581,4.720166
-74.04581,4.720166
-74.04581,4.720166
-74.04581,4.720166
-74.04581,4.720166
-74.04581,4.720166
-74.04581,4.720166
-74.04581,4.720166
-74.04581,4.720166
-74.04581,4.720166
-74.04581,4.720166
-74.04581,4.720166
-74.04581,4.720166
-74.04581,4.720166
-74.04581,4.720166
-74.04581,4.720166
-74.04581,4.720166
-74.04581,4.720166
-74.04581,4.720166
-74.04581,4.720166
-74.04581,4.720166
-74.04581,4.720166
-74.04581,4.720166
-74.04581,4.720166
-74.04581,4.720166
-74.04581,4.720166
-74.04581,4.720166
-74.04581,4.720166
-74.04581,4.720166
-74.04581,4.720166
-74.04581,4.720166
-74.04581,4.720166
-74.04581,4.720166
-74.04581,4.720166
-74.04581,4.720166
-74.04581,4.720166
-74.04581,4.720166
-74.04581,4.720166
-74.04581,4.720166
-74.04581,4.720166
-74.04581,4.720166
-74.04581,4.720166
-74.04581,4.720166
-74.04581,4.720166
-74.04581,4.720166
-74.04581,4.720166
-74.04581,4.720166
-74.04581,4.720166
-74.04581,4.720166
-74.04581,4.720166
-74.04581,4.720166
-74.04581,4.720166
-74.04581,4.720166
-74.04581,4.720166
-74.04581,4.720166
-74.04581,4.720166
-74.04581,4.720166
-74.04581,4.720166
-74.04581,4.720166
-74.04581,4.720166
-74.04581,4.720166
-74.04581,4.720166
-74.04581,4.720166
-74.04581,4.720166
-74.04581,4.720166
-74.04581,4.720166
-74.04581,4.720166
-74.04581,4.720166
-74.04581,4.720166
-74.04581,4.720166
-74.04581,4.720166
-74.04581,4.720166
-74.04581,4.720166
-74.04581,4.720166
-74.04581,4.720166
-74.04581,4.720166
-74.04581,4.720166
-74.04581,4.720166
-74.04581,4.720166
-74.04581,4.720166
-74.04581,4.720166
-74.04581,4.720166
-74.04581,4.720166
-74.04581,4.720166
-74.04581,4.720166
-74.04581,4.720166
-74.04581,4.720166
-74.04581,4.720166
-74.04581,4.720166
-74.04581,4.720166
-74.04581,4.720166
-74.04581,4.720166
-74.04581,4.720166
-74.04581,4.720166
-74.04581,4.720166
-74.04581,4.720166
-74.04581,4.720166
-74.04581,4.720166
-74.04581,4.720166
-74.04581,4.720166
-74.04581,4.720166
-74.04581,4.720166
-74.04581,4.720166
-74.04581,4.720166
</coordinates></LineString></Placemark> <Placemark><name>Start</name><description>Start</description><Point><coordinates>-74.04504,4.730005,2561.2</coordinates></Point></Placemark><Placemark><name>End</name><description>Start</description><Point><coordinates>-74.04581,4.720166,2562.2</coordinates></Point></Placemark></Document> </kml>